{"type": "FeatureCollection", "features": [ {"type": "Feature", "properties": {"norad_id": 66911, "name": "1998-067XX", "group": "stations", "lat": -17.209742741263053, "lon": -43.71076236318377, "alt_km": 409.2367297838564, "timestamp": "2025-12-16T19:34:23.037942+00:00", "meta": {"OBJECT_NAME": "1998-067XX", "OBJECT_ID": "1998-067XX", "EPOCH": "2025-12-15T13:21:12.839040", "MEAN_MOTION": 15.52435494, "ECCENTRICITY": 0.00044725, "INCLINATION": 51.6293, "RA_OF_ASC_NODE": 128.3487, "ARG_OF_PERICENTER": 225.8375, "MEAN_ANOMALY": 134.2248, "EPHEMERIS_TYPE": 0, "CLASSIFICATION_TYPE": "U", "NORAD_CAT_ID": 66911, "ELEMENT_SET_NO": 999, "REV_AT_EPOCH": 204, "BSTAR": 0.00085850941, "MEAN_MOTION_DOT": 0.00053353, "MEAN_MOTION_DDOT": 0}, "tle": {"line1": "1 66911U 98067XX  25349.55639860  .00053353  00000+0  85851-3 0  9996", "line2": "2 66911  51.6293 128.3487 0004472 225.8375 134.2248 15.52435494  2045"}}, "geometry": {"type": "Point", "coordinates": [-43.71076236318377, -17.209742741263053]}}, {"type": "Feature", "properties": {"norad_id": 66912, "name": "1998-067XY", "group": "stations", "lat": 10.755805187289027, "lon": -66.49853336366604, "alt_km": 410.91086387645373, "timestamp": "2025-12-16T19:34:23.037953+00:00", "meta": {"OBJECT_NAME": "1998-067XY", "OBJECT_ID": "1998-067XY", "EPOCH": "2025-12-15T15:02:01.063680", "MEAN_MOTION": 15.51430232, "ECCENTRICITY": 0.00042771, "INCLINATION": 51.6298, "RA_OF_ASC_NODE": 128.066, "ARG_OF_PERICENTER": 239.2298, "MEAN_ANOMALY": 120.827, "EPHEMERIS_TYPE": 0, "CLASSIFICATION_TYPE": "U", "NORAD_CAT_ID": 66912, "ELEMENT_SET_NO": 999, "REV_AT_EPOCH": 205, "BSTAR": 0.00059034446, "MEAN_MOTION_DOT": 0.00035151, "MEAN_MOTION_DDOT": 0}, "tle": {"line1": "1 66912U 98067XY  25349.62640120  .00035151  00000+0  59034-3 0  9996", "line2": "2 66912  51.6298 128.0660 0004277 239.2298 120.8270 15.51430232  2058"}}, "geometry": {"type": "Point", "coordinates": [-66.49853336366604, 10.755805187289027]}}]}